[{"OBJECT_NAME":"SALSAT","OBJECT_ID":"2020-068K","EPOCH":"2026-03-09T22:26:21.804576","MEAN_MOTION":15.28191989,"ECCENTRICITY":0.00082652,"INCLINATION":97.8859,"RA_OF_ASC_NODE":66.0795,"ARG_OF_PERICENTER":295.8051,"MEAN_ANOMALY":64.2334,"EPHEMERIS_TYPE":0,"CLASSIFICATION_TYPE":"U","NORAD_CAT_ID":46495,"ELEMENT_SET_NO":999,"REV_AT_EPOCH":30019,"BSTAR":0.00040842582,"MEAN_MOTION_DOT":0.00011156,"MEAN_MOTION_DDOT":0},{"OBJECT_NAME":"STARLINK-32545","OBJECT_ID":"2024-222X","EPOCH":"2026-03-09T05:27:17.997696","MEAN_MOTION":15.27592527,"ECCENTRICITY":7.24e-5,"INCLINATION":42.9973,"RA_OF_ASC_NODE":139.1901,"ARG_OF_PERICENTER":208.4705,"MEAN_ANOMALY":151.6107,"EPHEMERIS_TYPE":0,"CLASSIFICATION_TYPE":"U","NORAD_CAT_ID":62135,"ELEMENT_SET_NO":999,"REV_AT_EPOCH":7272,"BSTAR":0.0013788047,"MEAN_MOTION_DOT":0.00037889,"MEAN_MOTION_DDOT":0}]
